QIANFAN-81              
1 63167U 25046J   25278.20228892  .00000229  00000+0  33558-3 0  9996
2 63167  88.9813 326.9629 0013028 325.2962  34.7338 13.50984187 38232
QIANFAN-82              
1 63168U 25046K   25278.16125806  .00000195  00000+0  28295-3 0  9997
2 63168  88.9813 327.0107 0011437 335.4584  24.6021 13.50971878 38219
QIANFAN-83              
1 63169U 25046L   25278.22728837  .00000243  00000+0  29995-3 0  9990
2 63169  88.9813 326.9147 0012347 322.2289  37.8001 13.61959621 38273
QIANFAN-84              
1 63170U 25046M   25278.18973398  .00000159  00000+0  22810-3 0  9996
2 63170  88.9813 327.1407 0014256 329.6486  30.3838 13.50984418 38140
QIANFAN-85              
1 63171U 25046N   25278.18596247  .00000208  00000+0  30341-3 0  9994
2 63171  88.9812 327.0131 0011736 333.9082  26.1476 13.50968303 38217
QIANFAN-86              
1 63172U 25046P   25278.19419515  .00000211  00000+0  30883-3 0  9993
2 63172  88.9814 326.8728 0009785 340.4720  19.6055 13.50971694 38297
QIANFAN-87              
1 63173U 25046Q   25278.16537848  .00000218  00000+0  31849-3 0  9991
2 63173  88.9811 326.9900 0010322 334.0932  25.9701 13.50978338 38224
QIANFAN-88              
1 63174U 25046R   25278.18185773  .00000202  00000+0  29428-3 0  9993
2 63174  88.9813 326.9411 0010960 342.7633  17.3144 13.50971620 38252
